SUPERVIEW NEO-2 OBJECT A
1 68377U 26062A   26105.26972994  .00001540  00000+0  74859-4 0  9995
2 68377  97.4387 113.4740 0003870 171.7397 188.3903 15.19914755  3095
SUPERVIEW NEO-2 OBJECT B
1 68378U 26062B   26104.74291451  .00001446  00000+0  71090-4 0  9999
2 68378  97.4369 112.9508 0006252 187.9455 172.1682 15.19617352  3013
STARLINK-36296          
1 68380U 26063A   26105.25002315 -.01117037  00000+0 -80932-2 0  9999
2 68380  97.2843 246.9999 0001416  68.6751  59.0628 15.75941967  1547
STARLINK-37111          
1 68381U 26063B   26105.23333841  .00169261  00000+0  86483-3 0  9990
2 68381  97.2828 246.8082 0001384  76.3381 283.8042 15.80879944  3395
STARLINK-36946          
1 68382U 26063C   26105.23258722  .00129209  00000+0  66387-3 0  9994
2 68382  97.2832 246.8088 0001359  76.4201 283.7219 15.80865031  3398
STARLINK-37121          
1 68383U 26063D   26105.25002315 -.00037604  00000+0 -25224-3 0  9996
2 68383  97.2846 246.8224 0001139  67.8395  16.3105 15.75200789  4336
STARLINK-37137          
1 68384U 26063E   26105.31884048  .00099076  00000+0  65714-3 0  9992
2 68384  97.2844 246.8440 0001116  89.4907 270.6486 15.75200916  3405
STARLINK-37128          
1 68385U 26063F   26105.29363407  .00141652  00000+0  72657-3 0  9993
2 68385  97.2827 246.8791 0001417  82.1412 278.0017 15.80868685  3402
STARLINK-37198          
1 68386U 26063G   26105.25002315  .00001069  00000+0  80458-5 0  9995
2 68386  97.2839 246.8119 0001569  76.9711 343.1970 15.75162607  4331
STARLINK-37223          
1 68387U 26063H   26105.29213080  .00153451  00000+0  78581-3 0  9998
2 68387  97.2829 246.8807 0001364  82.0509 278.0915 15.80872690  3409
STARLINK-37203          
1 68388U 26063J   26105.16477706  .00135005  00000+0  69340-3 0  9990
2 68388  97.2829 246.7478 0000969  84.8153 275.3226 15.80857584  3385
STARLINK-37197          
1 68389U 26063K   26105.31248728  .00125655  00000+0  82998-3 0  9992
2 68389  97.2845 246.8520 0001199  76.2749 283.8650 15.75217786  3401
STARLINK-37193          
1 68390U 26063L   26105.25002315 -.01879359  00000+0 -12064-1 0  9992
2 68390  97.2835 247.0708 0001586  82.3743 230.7564 15.79210166  2677
STARLINK-37216          
1 68391U 26063M   26105.28912654  .00088030  00000+0  45510-3 0  9991
2 68391  97.2830 246.8853 0001554  82.0881 278.0563 15.80844220  3408
STARLINK-37215          
1 68392U 26063N   26105.16177238  .00119070  00000+0  61282-3 0  9993
2 68392  97.2830 246.7523 0001435  76.5317 283.6111 15.80855296  3385
