[{"OBJECT_NAME":"SUPERVIEW NEO-2 OBJECT A","OBJECT_ID":"2026-062A","EPOCH":"2026-04-15T06:28:24.666816","MEAN_MOTION":15.19914755,"ECCENTRICITY":0.00038708,"INCLINATION":97.4387,"RA_OF_ASC_NODE":113.474,"ARG_OF_PERICENTER":171.7397,"MEAN_ANOMALY":188.3903,"EPHEMERIS_TYPE":0,"CLASSIFICATION_TYPE":"U","NORAD_CAT_ID":68377,"ELEMENT_SET_NO":999,"REV_AT_EPOCH":309,"BSTAR":7.4858966e-5,"MEAN_MOTION_DOT":1.54e-5,"MEAN_MOTION_DDOT":0},{"OBJECT_NAME":"SUPERVIEW NEO-2 OBJECT B","OBJECT_ID":"2026-062B","EPOCH":"2026-04-14T17:49:47.813664","MEAN_MOTION":15.19617352,"ECCENTRICITY":0.00062526,"INCLINATION":97.4369,"RA_OF_ASC_NODE":112.9508,"ARG_OF_PERICENTER":187.9455,"MEAN_ANOMALY":172.1682,"EPHEMERIS_TYPE":0,"CLASSIFICATION_TYPE":"U","NORAD_CAT_ID":68378,"ELEMENT_SET_NO":999,"REV_AT_EPOCH":301,"BSTAR":7.1089833e-5,"MEAN_MOTION_DOT":1.446e-5,"MEAN_MOTION_DDOT":0},{"OBJECT_NAME":"STARLINK-36296","OBJECT_ID":"2026-063A","EPOCH":"2026-04-15T06:00:02.000160","MEAN_MOTION":15.75941967,"ECCENTRICITY":0.00014168,"INCLINATION":97.2843,"RA_OF_ASC_NODE":246.9999,"ARG_OF_PERICENTER":68.6751,"MEAN_ANOMALY":59.0628,"EPHEMERIS_TYPE":0,"CLASSIFICATION_TYPE":"U","NORAD_CAT_ID":68380,"ELEMENT_SET_NO":999,"REV_AT_EPOCH":154,"BSTAR":-0.0080931953,"MEAN_MOTION_DOT":-0.01117037,"MEAN_MOTION_DDOT":0},{"OBJECT_NAME":"STARLINK-37111","OBJECT_ID":"2026-063B","EPOCH":"2026-04-15T05:36:00.438624","MEAN_MOTION":15.80879944,"ECCENTRICITY":0.00013848,"INCLINATION":97.2828,"RA_OF_ASC_NODE":246.8082,"ARG_OF_PERICENTER":76.3381,"MEAN_ANOMALY":283.8042,"EPHEMERIS_TYPE":0,"CLASSIFICATION_TYPE":"U","NORAD_CAT_ID":68381,"ELEMENT_SET_NO":999,"REV_AT_EPOCH":339,"BSTAR":0.00086483381,"MEAN_MOTION_DOT":0.00169261,"MEAN_MOTION_DDOT":0},{"OBJECT_NAME":"STARLINK-36946","OBJECT_ID":"2026-063C","EPOCH":"2026-04-15T05:34:55.535808","MEAN_MOTION":15.80865031,"ECCENTRICITY":0.00013597,"INCLINATION":97.2832,"RA_OF_ASC_NODE":246.8088,"ARG_OF_PERICENTER":76.4201,"MEAN_ANOMALY":283.7219,"EPHEMERIS_TYPE":0,"CLASSIFICATION_TYPE":"U","NORAD_CAT_ID":68382,"ELEMENT_SET_NO":999,"REV_AT_EPOCH":339,"BSTAR":0.00066386924,"MEAN_MOTION_DOT":0.00129209,"MEAN_MOTION_DDOT":0},{"OBJECT_NAME":"STARLINK-37121","OBJECT_ID":"2026-063D","EPOCH":"2026-04-15T06:00:02.000160","MEAN_MOTION":15.75200789,"ECCENTRICITY":0.00011399,"INCLINATION":97.2846,"RA_OF_ASC_NODE":246.8224,"ARG_OF_PERICENTER":67.8395,"MEAN_ANOMALY":16.3105,"EPHEMERIS_TYPE":0,"CLASSIFICATION_TYPE":"U","NORAD_CAT_ID":68383,"ELEMENT_SET_NO":999,"REV_AT_EPOCH":433,"BSTAR":-0.0002522401,"MEAN_MOTION_DOT":-0.00037604,"MEAN_MOTION_DDOT":0},{"OBJECT_NAME":"STARLINK-37137","OBJECT_ID":"2026-063E","EPOCH":"2026-04-15T07:39:07.817472","MEAN_MOTION":15.75200916,"ECCENTRICITY":0.00011166,"INCLINATION":97.2844,"RA_OF_ASC_NODE":246.844,"ARG_OF_PERICENTER":89.4907,"MEAN_ANOMALY":270.6486,"EPHEMERIS_TYPE":0,"CLASSIFICATION_TYPE":"U","NORAD_CAT_ID":68384,"ELEMENT_SET_NO":999,"REV_AT_EPOCH":340,"BSTAR":0.000657136,"MEAN_MOTION_DOT":0.00099076,"MEAN_MOTION_DDOT":0},{"OBJECT_NAME":"STARLINK-37128","OBJECT_ID":"2026-063F","EPOCH":"2026-04-15T07:02:49.983648","MEAN_MOTION":15.80868685,"ECCENTRICITY":0.00014172,"INCLINATION":97.2827,"RA_OF_ASC_NODE":246.8791,"ARG_OF_PERICENTER":82.1412,"MEAN_ANOMALY":278.0017,"EPHEMERIS_TYPE":0,"CLASSIFICATION_TYPE":"U","NORAD_CAT_ID":68385,"ELEMENT_SET_NO":999,"REV_AT_EPOCH":340,"BSTAR":0.0007265661,"MEAN_MOTION_DOT":0.00141652,"MEAN_MOTION_DDOT":0},{"OBJECT_NAME":"STARLINK-37198","OBJECT_ID":"2026-063G","EPOCH":"2026-04-15T06:00:02.000160","MEAN_MOTION":15.75162607,"ECCENTRICITY":0.00015695,"INCLINATION":97.2839,"RA_OF_ASC_NODE":246.8119,"ARG_OF_PERICENTER":76.9711,"MEAN_ANOMALY":343.197,"EPHEMERIS_TYPE":0,"CLASSIFICATION_TYPE":"U","NORAD_CAT_ID":68386,"ELEMENT_SET_NO":999,"REV_AT_EPOCH":433,"BSTAR":8.045804e-6,"MEAN_MOTION_DOT":1.069e-5,"MEAN_MOTION_DDOT":0},{"OBJECT_NAME":"STARLINK-37223","OBJECT_ID":"2026-063H","EPOCH":"2026-04-15T07:00:40.101120","MEAN_MOTION":15.8087269,"ECCENTRICITY":0.00013643,"INCLINATION":97.2829,"RA_OF_ASC_NODE":246.8807,"ARG_OF_PERICENTER":82.0509,"MEAN_ANOMALY":278.0915,"EPHEMERIS_TYPE":0,"CLASSIFICATION_TYPE":"U","NORAD_CAT_ID":68387,"ELEMENT_SET_NO":999,"REV_AT_EPOCH":340,"BSTAR":0.00078581436,"MEAN_MOTION_DOT":0.00153451,"MEAN_MOTION_DDOT":0},{"OBJECT_NAME":"STARLINK-37203","OBJECT_ID":"2026-063J","EPOCH":"2026-04-15T03:57:16.737984","MEAN_MOTION":15.80857584,"ECCENTRICITY":9.697e-5,"INCLINATION":97.2829,"RA_OF_ASC_NODE":246.7478,"ARG_OF_PERICENTER":84.8153,"MEAN_ANOMALY":275.3226,"EPHEMERIS_TYPE":0,"CLASSIFICATION_TYPE":"U","NORAD_CAT_ID":68388,"ELEMENT_SET_NO":999,"REV_AT_EPOCH":338,"BSTAR":0.00069339641,"MEAN_MOTION_DOT":0.00135005,"MEAN_MOTION_DDOT":0},{"OBJECT_NAME":"STARLINK-37197","OBJECT_ID":"2026-063K","EPOCH":"2026-04-15T07:29:58.900992","MEAN_MOTION":15.75217786,"ECCENTRICITY":0.00011995,"INCLINATION":97.2845,"RA_OF_ASC_NODE":246.852,"ARG_OF_PERICENTER":76.2749,"MEAN_ANOMALY":283.865,"EPHEMERIS_TYPE":0,"CLASSIFICATION_TYPE":"U","NORAD_CAT_ID":68389,"ELEMENT_SET_NO":999,"REV_AT_EPOCH":340,"BSTAR":0.0008299837,"MEAN_MOTION_DOT":0.00125655,"MEAN_MOTION_DDOT":0},{"OBJECT_NAME":"STARLINK-37193","OBJECT_ID":"2026-063L","EPOCH":"2026-04-15T06:00:02.000160","MEAN_MOTION":15.79210166,"ECCENTRICITY":0.00015864,"INCLINATION":97.2835,"RA_OF_ASC_NODE":247.0708,"ARG_OF_PERICENTER":82.3743,"MEAN_ANOMALY":230.7564,"EPHEMERIS_TYPE":0,"CLASSIFICATION_TYPE":"U","NORAD_CAT_ID":68390,"ELEMENT_SET_NO":999,"REV_AT_EPOCH":267,"BSTAR":-0.012063522,"MEAN_MOTION_DOT":-0.01879359,"MEAN_MOTION_DDOT":0},{"OBJECT_NAME":"STARLINK-37216","OBJECT_ID":"2026-063M","EPOCH":"2026-04-15T06:56:20.533056","MEAN_MOTION":15.8084422,"ECCENTRICITY":0.0001554,"INCLINATION":97.283,"RA_OF_ASC_NODE":246.8853,"ARG_OF_PERICENTER":82.0881,"MEAN_ANOMALY":278.0563,"EPHEMERIS_TYPE":0,"CLASSIFICATION_TYPE":"U","NORAD_CAT_ID":68391,"ELEMENT_SET_NO":999,"REV_AT_EPOCH":340,"BSTAR":0.00045509984,"MEAN_MOTION_DOT":0.0008803,"MEAN_MOTION_DDOT":0},{"OBJECT_NAME":"STARLINK-37215","OBJECT_ID":"2026-063N","EPOCH":"2026-04-15T03:52:57.133632","MEAN_MOTION":15.80855296,"ECCENTRICITY":0.00014357,"INCLINATION":97.283,"RA_OF_ASC_NODE":246.7523,"ARG_OF_PERICENTER":76.5317,"MEAN_ANOMALY":283.6111,"EPHEMERIS_TYPE":0,"CLASSIFICATION_TYPE":"U","NORAD_CAT_ID":68392,"ELEMENT_SET_NO":999,"REV_AT_EPOCH":338,"BSTAR":0.00061281586,"MEAN_MOTION_DOT":0.0011907,"MEAN_MOTION_DDOT":0}]
